start=new Date('2023-02-24T00:00:00.000Z').valueOf();
sats=[{"APOAPSIS":"548.103","RCS_SIZE":"LARGE","TIME_SYSTEM":"UTC","COUNTRY_CODE":"US","MEAN_ANOMALY":"261.0904","MEAN_ELEMENT_THEORY":"SGP4","MEAN_MOTION_DDOT":"0.0000000000000","PERIAPSIS":"546.429","RA_OF_ASC_NODE":"205.8575","EPOCH":"2023-02-23T09:50:42.250272","TLE_LINE1":"1 47842U 21018BH  23054.41021123  .00018378  00000-0  12500-2 0  9992","REF_FRAME":"TEME","GP_ID":"226565917","INCLINATION":"53.0516","MEAN_MOTION":"15.06382885","FILE":"3828819","OBJECT_TYPE":"PAYLOAD","BSTAR":"0.00125000000000","LAUNCH_DATE":"2021-03-11","SEMIMAJOR_AXIS":"6925.401","OBJECT_NAME":"STARLINK-2434","NORAD_CAT_ID":"47842","DECAY_DATE":null,"MEAN_MOTION_DOT":"0.00018378","ELEMENT_SET_NO":"999","SITE":"AFETR","CENTER_NAME":"EARTH","PERIOD":"95.593","ECCENTRICITY":"0.00012090","ARG_OF_PERICENTER":"99.0222","TLE_LINE2":"2 47842  53.0516 205.8575 0001209  99.0222 261.0904 15.06382885109160","CLASSIFICATION_TYPE":"U","EPHEMERIS_TYPE":"0","OBJECT_ID":"2021-018BH","REV_AT_EPOCH":"10916"},{"PERIOD":"95.591","ELEMENT_SET_NO":"999","SITE":"AFETR","CENTER_NAME":"EARTH","TLE_LINE2":"2 47843  53.0517 200.3838 0000761  87.1317 272.9759 15.06414850109212","EPHEMERIS_TYPE":"0","CLASSIFICATION_TYPE":"U","OBJECT_ID":"2021-018BJ","REV_AT_EPOCH":"10921","ECCENTRICITY":"0.00007610","ARG_OF_PERICENTER":"87.1317","NORAD_CAT_ID":"47843","OBJECT_NAME":"STARLINK-2435","SEMIMAJOR_AXIS":"6925.303","MEAN_MOTION_DOT":"0.00023511","DECAY_DATE":null,"EPOCH":"2023-02-23T12:22:38.298720","GP_ID":"226567166","INCLINATION":"53.0517","REF_FRAME":"TEME","TLE_LINE1":"1 47843U 21018BJ  23054.51572105  .00023511  00000-0  15914-2 0  9992","RA_OF_ASC_NODE":"200.3838","LAUNCH_DATE":"2021-03-11","MEAN_MOTION":"15.06414850","FILE":"3828819","BSTAR":"0.00159140000000","OBJECT_TYPE":"PAYLOAD","COUNTRY_CODE":"US","RCS_SIZE":"LARGE","APOAPSIS":"547.695","TIME_SYSTEM":"UTC","PERIAPSIS":"546.641","MEAN_ANOMALY":"272.9759","MEAN_MOTION_DDOT":"0.0000000000000","MEAN_ELEMENT_THEORY":"SGP4"},{"SITE":"AFETR","ELEMENT_SET_NO":"999","CENTER_NAME":"EARTH","PERIOD":"95.595","ECCENTRICITY":"0.00010580","ARG_OF_PERICENTER":"62.5376","EPHEMERIS_TYPE":"0","TLE_LINE2":"2 47844  53.0526 195.9842 0001058  62.5376 297.5720 15.06361689109244","CLASSIFICATION_TYPE":"U","OBJECT_ID":"2021-018BK","REV_AT_EPOCH":"10924","SEMIMAJOR_AXIS":"6925.466","NORAD_CAT_ID":"47844","OBJECT_NAME":"STARLINK-2446","DECAY_DATE":null,"MEAN_MOTION_DOT":"0.00017882","RA_OF_ASC_NODE":"195.9842","EPOCH":"2023-02-23T09:09:33.966432","GP_ID":"226567419","INCLINATION":"53.0526","TLE_LINE1":"1 47844U 21018BK  23054.38164313  .00017882  00000-0  12176-2 0  9997","REF_FRAME":"TEME","MEAN_MOTION":"15.06361689","FILE":"3828819","OBJECT_TYPE":"PAYLOAD","BSTAR":"0.00121760000000","LAUNCH_DATE":"2021-03-11","RCS_SIZE":"LARGE","APOAPSIS":"548.064","TIME_SYSTEM":"UTC","COUNTRY_CODE":"US","MEAN_ANOMALY":"297.5720","MEAN_MOTION_DDOT":"0.0000000000000","MEAN_ELEMENT_THEORY":"SGP4","PERIAPSIS":"546.598"},{"EPOCH":"2023-02-23T14:22:43.453920","GP_ID":"226586570","INCLINATION":"53.0528","TLE_LINE1":"1 47845U 21018BL  23054.59911405  .00020009  00000-0  13582-2 0  9990","REF_FRAME":"TEME","RA_OF_ASC_NODE":"195.0064","LAUNCH_DATE":"2021-03-11","MEAN_MOTION":"15.06404433","FILE":"3829577","BSTAR":"0.00135820000000","OBJECT_TYPE":"PAYLOAD","COUNTRY_CODE":"US","RCS_SIZE":"LARGE","APOAPSIS":"548.114","TIME_SYSTEM":"UTC","PERIAPSIS":"546.286","MEAN_ANOMALY":"255.8092","MEAN_MOTION_DDOT":"0.0000000000000","MEAN_ELEMENT_THEORY":"SGP4","PERIOD":"95.592","ELEMENT_SET_NO":"999","SITE":"AFETR","CENTER_NAME":"EARTH","TLE_LINE2":"2 47845  53.0528 195.0064 0001320 104.3043 255.8092 15.06404433108942","CLASSIFICATION_TYPE":"U","EPHEMERIS_TYPE":"0","REV_AT_EPOCH":"10894","OBJECT_ID":"2021-018BL","ECCENTRICITY":"0.00013200","ARG_OF_PERICENTER":"104.3043","NORAD_CAT_ID":"47845","OBJECT_NAME":"STARLINK-2453","SEMIMAJOR_AXIS":"6925.335","MEAN_MOTION_DOT":"0.00020009","DECAY_DATE":null},{"COUNTRY_CODE":"US","TIME_SYSTEM":"UTC","RCS_SIZE":"LARGE","APOAPSIS":"548.129","PERIAPSIS":"546.090","MEAN_ELEMENT_THEORY":"SGP4","MEAN_MOTION_DDOT":"0.0000000000000","MEAN_ANOMALY":"271.5938","TLE_LINE1":"1 47846U 21018BM  23054.85987088  .00021588  00000-0  14624-2 0  9991","REF_FRAME":"TEME","INCLINATION":"53.0532","GP_ID":"226581021","EPOCH":"2023-02-23T20:38:12.844032","RA_OF_ASC_NODE":"193.8235","LAUNCH_DATE":"2021-03-11","OBJECT_TYPE":"PAYLOAD","BSTAR":"0.00146240000000","MEAN_MOTION":"15.06433981","FILE":"3829314","OBJECT_NAME":"STARLINK-2456","NORAD_CAT_ID":"47846","SEMIMAJOR_AXIS":"6925.244","MEAN_MOTION_DOT":"0.00021588","DECAY_DATE":null,"PERIOD":"95.590","CENTER_NAME":"EARTH","SITE":"AFETR","ELEMENT_SET_NO":"999","REV_AT_EPOCH":"10898","OBJECT_ID":"2021-018BM","EPHEMERIS_TYPE":"0","TLE_LINE2":"2 47846  53.0532 193.8235 0001472  88.5220 271.5938 15.06433981108980","CLASSIFICATION_TYPE":"U","ARG_OF_PERICENTER":"88.5220","ECCENTRICITY":"0.00014720"},{"COUNTRY_CODE":"US","RCS_SIZE":"LARGE","APOAPSIS":"547.914","TIME_SYSTEM":"UTC","PERIAPSIS":"546.926","MEAN_ANOMALY":"286.4459","MEAN_ELEMENT_THEORY":"SGP4","MEAN_MOTION_DDOT":"0.0000000000000","EPOCH":"2023-02-23T22:21:48.524832","TLE_LINE1":"1 47860U 21021A   23054.93181163 -.00006386  00000-0 -41101-3 0  9992","REF_FRAME":"TEME","GP_ID":"226598553","INCLINATION":"53.0547","RA_OF_ASC_NODE":"223.5040","LAUNCH_DATE":"2021-03-14","MEAN_MOTION":"15.06332694","FILE":"3830076","OBJECT_TYPE":"PAYLOAD","BSTAR":"-0.00041101000000","OBJECT_NAME":"STARLINK-2258","NORAD_CAT_ID":"47860","SEMIMAJOR_AXIS":"6925.555","MEAN_MOTION_DOT":"-0.00006386","DECAY_DATE":null,"PERIOD":"95.596","ELEMENT_SET_NO":"999","SITE":"AFETR","CENTER_NAME":"EARTH","CLASSIFICATION_TYPE":"U","TLE_LINE2":"2 47860  53.0547 223.5040 0000713  73.6608 286.4459 15.06332694108295","EPHEMERIS_TYPE":"0","REV_AT_EPOCH":"10829","OBJECT_ID":"2021-021A","ECCENTRICITY":"0.00007130","ARG_OF_PERICENTER":"73.6608"},{"TLE_LINE2":"2 47861  53.0545 210.2123 0001095  67.7029 292.4076 15.06393987108940","EPHEMERIS_TYPE":"0","CLASSIFICATION_TYPE":"U","OBJECT_ID":"2021-021B","REV_AT_EPOCH":"10894","ECCENTRICITY":"0.00010950","ARG_OF_PERICENTER":"67.7029","PERIOD":"95.593","SITE":"AFETR","ELEMENT_SET_NO":"999","CENTER_NAME":"EARTH","MEAN_MOTION_DOT":"0.00023699","DECAY_DATE":null,"NORAD_CAT_ID":"47861","OBJECT_NAME":"STARLINK-2280","SEMIMAJOR_AXIS":"6925.367","LAUNCH_DATE":"2021-03-14","FILE":"3828819","MEAN_MOTION":"15.06393987","BSTAR":"0.00160480000000","OBJECT_TYPE":"PAYLOAD","EPOCH":"2023-02-23T13:14:22.503840","GP_ID":"226566921","INCLINATION":"53.0545","TLE_LINE1":"1 47861U 21021B   23054.55164935  .00023699  00000-0  16048-2 0  9994","REF_FRAME":"TEME","RA_OF_ASC_NODE":"210.2123","PERIAPSIS":"546.474","MEAN_ANOMALY":"292.4076","MEAN_MOTION_DDOT":"0.0000000000000","MEAN_ELEMENT_THEORY":"SGP4","COUNTRY_CODE":"US","APOAPSIS":"547.990","RCS_SIZE":"LARGE","TIME_SYSTEM":"UTC"},{"ARG_OF_PERICENTER":"93.3348","ECCENTRICITY":"0.00013300","OBJECT_ID":"2021-021C","REV_AT_EPOCH":"10898","EPHEMERIS_TYPE":"0","TLE_LINE2":"2 47862  53.0517 205.9072 0001330  93.3348 266.7793 15.06396154108988","CLASSIFICATION_TYPE":"U","CENTER_NAME":"EARTH","SITE":"AFETR","ELEMENT_SET_NO":"999","PERIOD":"95.592","DECAY_DATE":null,"MEAN_MOTION_DOT":"0.00019208","SEMIMAJOR_AXIS":"6925.360","NORAD_CAT_ID":"47862","OBJECT_NAME":"STARLINK-2291","BSTAR":"0.00130500000000","OBJECT_TYPE":"PAYLOAD","FILE":"3828819","MEAN_MOTION":"15.06396154","LAUNCH_DATE":"2021-03-14","RA_OF_ASC_NODE":"205.9072","INCLINATION":"53.0517","GP_ID":"226565669","REF_FRAME":"TEME","TLE_LINE1":"1 47862U 21021C   23054.39913824  .00019208  00000-0  13050-2 0  9997","EPOCH":"2023-02-23T09:34:45.543936","MEAN_MOTION_DDOT":"0.0000000000000","MEAN_ELEMENT_THEORY":"SGP4","MEAN_ANOMALY":"266.7793","PERIAPSIS":"546.304","TIME_SYSTEM":"UTC","RCS_SIZE":"LARGE","APOAPSIS":"548.146","COUNTRY_CODE":"US"},{"PERIAPSIS":"546.600","MEAN_ANOMALY":"260.5605","MEAN_MOTION_DDOT":"0.0000000000000","MEAN_ELEMENT_THEORY":"SGP4","COUNTRY_CODE":"US","RCS_SIZE":"LARGE","APOAPSIS":"547.909","TIME_SYSTEM":"UTC","LAUNCH_DATE":"2021-03-14","MEAN_MOTION":"15.06386764","FILE":"3828819","OBJECT_TYPE":"PAYLOAD","BSTAR":"0.00129250000000","EPOCH":"2023-02-23T11:46:08.413824","GP_ID":"226565919","INCLINATION":"53.0532","TLE_LINE1":"1 47863U 21021D   23054.49037516  .00019016  00000-0  12925-2 0  9991","REF_FRAME":"TEME","RA_OF_ASC_NODE":"215.4949","MEAN_MOTION_DOT":"0.00019016","DECAY_DATE":null,"NORAD_CAT_ID":"47863","OBJECT_NAME":"STARLINK-2293","SEMIMAJOR_AXIS":"6925.389","TLE_LINE2":"2 47863  53.0532 215.4949 0000945  99.5491 260.5605 15.06386764108860","EPHEMERIS_TYPE":"0","CLASSIFICATION_TYPE":"U","REV_AT_EPOCH":"10886","OBJECT_ID":"2021-021D","ECCENTRICITY":"0.00009450","ARG_OF_PERICENTER":"99.5491","PERIOD":"95.593","ELEMENT_SET_NO":"999","SITE":"AFETR","CENTER_NAME":"EARTH"},{"MEAN_MOTION_DOT":"0.00030842","DECAY_DATE":null,"OBJECT_NAME":"STARLINK-2304","NORAD_CAT_ID":"47864","SEMIMAJOR_AXIS":"6925.321","REV_AT_EPOCH":"10897","OBJECT_ID":"2021-021E","TLE_LINE2":"2 47864  53.0528 205.6417 0001158 102.7817 257.3301 15.06408989108976","CLASSIFICATION_TYPE":"U","EPHEMERIS_TYPE":"0","ARG_OF_PERICENTER":"102.7817","ECCENTRICITY":"0.00011580","PERIOD":"95.592","CENTER_NAME":"EARTH","ELEMENT_SET_NO":"999","SITE":"AFETR","PERIAPSIS":"546.384","MEAN_ELEMENT_THEORY":"SGP4","MEAN_MOTION_DDOT":"0.0000000000000","MEAN_ANOMALY":"257.3301","COUNTRY_CODE":"US","TIME_SYSTEM":"UTC","APOAPSIS":"547.988","RCS_SIZE":"LARGE","LAUNCH_DATE":"2021-03-14","BSTAR":"0.00207990000000","OBJECT_TYPE":"PAYLOAD","FILE":"3828819","MEAN_MOTION":"15.06408989","TLE_LINE1":"1 47864U 21021E   23054.46917920  .00030842  00000-0  20799-2 0  9993","REF_FRAME":"TEME","GP_ID":"226567168","INCLINATION":"53.0528","EPOCH":"2023-02-23T11:15:37.082880","RA_OF_ASC_NODE":"205.6417"}];
